EUTELSAT QUANTUM        
1 49056U 21069B   25226.90452645  .00000125  00000+0  00000+0 0  9990
2 49056   0.0453 284.4309 0002105 241.6591 170.7833  1.00272228 14855
EUTELSAT KONNECT VHTS   
1 53765U 22110A   25226.60995604  .00000017  00000+0  00000+0 0  9994
2 53765   0.0563 102.5516 0002579  40.0520  42.9360  1.00269827  3750
EUTELSAT HOTBIRD 13F    
1 54048U 22134A   25226.91711541  .00000087  00000+0  00000+0 0  9992
2 54048   0.0529 282.7239 0001941  73.5896 310.4092  1.00272505 10300
EUTELSAT HOTBIRD 13G    
1 54225U 22146A   25226.91711541  .00000087  00000+0  00000+0 0  9992
2 54225   0.0508 239.4168 0002090 305.2325 122.0774  1.00271305  4395
EUTELSAT 10B            
1 54259U 22157A   25226.91711541  .00000067  00000+0  00000+0 0  9999
2 54259   0.0515  99.1091 0001451   2.2708 202.3254  1.00267858  9944
EUTELSAT 36D            
1 59346U 24059A   25226.93377997  .00000155  00000+0  00000+0 0  9997
2 59346   0.0138 114.0417 0000284  80.8209 140.7385  1.00271032  5076
